[{"OBJECT_NAME":"LEMUR-2-PETERG","OBJECT_ID":"2017-042S","EPOCH":"2026-03-09T11:34:35.656032","MEAN_MOTION":15.29611459,"ECCENTRICITY":0.00037,"INCLINATION":97.398,"RA_OF_ASC_NODE":253.6596,"ARG_OF_PERICENTER":341.6938,"MEAN_ANOMALY":18.4169,"EPHEMERIS_TYPE":0,"CLASSIFICATION_TYPE":"U","NORAD_CAT_ID":42841,"ELEMENT_SET_NO":999,"REV_AT_EPOCH":47317,"BSTAR":0.00081076471,"MEAN_MOTION_DOT":0.0002324,"MEAN_MOTION_DDOT":0},{"OBJECT_NAME":"STARLINK-2435","OBJECT_ID":"2021-018BJ","EPOCH":"2026-03-10T00:00:02.999808","MEAN_MOTION":15.29340937,"ECCENTRICITY":0.00013872,"INCLINATION":53.155,"RA_OF_ASC_NODE":253.714,"ARG_OF_PERICENTER":82.5646,"MEAN_ANOMALY":227.059,"EPHEMERIS_TYPE":0,"CLASSIFICATION_TYPE":"U","NORAD_CAT_ID":47843,"ELEMENT_SET_NO":999,"REV_AT_EPOCH":569,"BSTAR":0.0017512838,"MEAN_MOTION_DOT":0.000505,"MEAN_MOTION_DDOT":0}]
